OBJECT_NAME,OBJECT_ID,EPOCH,MEAN_MOTION,ECCENTRICITY,INCLINATION,RA_OF_ASC_NODE,ARG_OF_PERICENTER,MEAN_ANOMALY,EPHEMERIS_TYPE,CLASSIFICATION_TYPE,NORAD_CAT_ID,ELEMENT_SET_NO,REV_AT_EPOCH,BSTAR,MEAN_MOTION_DOT,MEAN_MOTION_DDOT
ONEWEB-0133,2020-100X,2026-03-01T08:33:20.693664,13.12442023,.0001755,87.8995,12.0425,85.0622,275.0707,0,U,47279,999,25059,-.94744E-3,-.328E-5,0
ONEWEB-0134,2020-100Y,2026-03-01T09:39:25.857504,13.12441543,.0001926,87.8996,12.0306,87.9163,272.2186,0,U,47280,999,25057,.64681E-3,.245E-5,0
ONEWEB-0135,2020-100Z,2026-03-01T08:57:56.143008,13.12449231,.0001831,87.8984,12.0731,91.8931,268.2407,0,U,47281,999,25059,-.21743E-2,-.77E-5,0
ONEWEB-0136,2020-100AA,2026-03-01T09:24:47.186784,13.12441523,.0002095,87.8995,12.0418,90.7958,269.3410,0,U,47282,999,25052,.11547E-2,.428E-5,0
ONEWEB-0137,2020-100AB,2026-03-01T08:23:47.306976,13.12442062,.000188,87.8996,12.0551,77.0910,283.0428,0,U,47283,999,25042,-.10397E-2,-.361E-5,0
ONEWEB-0138,2020-100AC,2026-03-01T09:41:52.053216,13.12441291,.000197,87.8995,12.0540,85.2620,274.8734,0,U,47284,999,25051,.51895E-3,.199E-5,0
ONEWEB-0139,2020-100AD,2026-03-01T08:50:50.669664,13.12442311,.000187,87.8992,12.0485,81.1730,278.9610,0,U,47285,999,25058,.20643E-4,.2E-6,0
ONEWEB-0140,2020-100AE,2026-03-01T09:34:32.683296,13.12441349,.0001691,87.8995,12.0310,83.8077,276.3244,0,U,47286,999,25055,.93155E-3,.348E-5,0
ONEWEB-0141,2020-100AF,2026-03-01T08:50:26.004192,13.12442878,.0001997,87.8993,12.0433,71.8800,288.2546,0,U,47287,999,25053,.97918E-4,.48E-6,0
ONEWEB-0142,2020-100AG,2026-03-01T08:33:46.022688,13.12444110,.0002217,87.8989,12.0703,76.3584,283.7791,0,U,47288,999,25052,-.87971E-3,-.304E-5,0
ONEWEB-0143,2020-100AH,2026-03-01T08:48:11.303136,13.12442723,.0001875,87.8992,12.0645,79.8884,280.2456,0,U,47289,999,25050,-.17558E-3,-.5E-6,0
ONEWEB-0144,2020-100AJ,2026-03-01T09:56:30.069024,13.12441231,.0002169,87.8997,12.0244,84.4275,275.7101,0,U,47290,999,25043,-.41835E-3,-.138E-5,0
ONEWEB-0145,2020-100AK,2026-03-01T09:15:01.947744,13.12442068,.0001951,87.8991,12.0688,81.2462,278.8887,0,U,47291,999,25062,.11947E-2,.443E-5,0
ONEWEB-0146,2020-100AL,2026-03-01T09:10:06.959136,13.12459905,.0001615,87.8992,12.0544,77.0305,283.1004,0,U,47292,999,25053,.67076E-2,.2427E-4,0
ONEWEB-0147,2020-100AM,2026-03-01T08:21:21.281472,13.12442164,.0001877,87.8996,12.0408,89.6600,270.4744,0,U,47293,999,25042,-.11084E-2,-.386E-5,0
ONEWEB-0115,2021-025A,2026-03-01T07:23:52.044864,13.13468920,.0001722,87.9049,341.6722,79.2060,280.9262,0,U,48042,999,23943,.73637E-3,.282E-5,0
ONEWEB-0152,2021-025B,2026-03-01T07:43:21.614016,13.13468807,.0001637,87.9045,341.6715,79.1424,280.9889,0,U,48043,999,23939,.28577E-3,.117E-5,0
ONEWEB-0153,2021-025C,2026-03-01T07:11:40.993728,13.13469302,.0001872,87.9040,341.6813,77.8897,282.2442,0,U,48044,999,23938,.81105E-3,.309E-5,0
ONEWEB-0154,2021-025D,2026-03-01T07:06:48.372480,13.13470821,.0001734,87.9040,341.6795,81.8932,278.2394,0,U,48045,999,23934,.7311E-3,.28E-5,0
ONEWEB-0116,2021-025E,2026-03-01T08:02:51.495072,13.13468714,.0001635,87.9050,341.6593,79.3110,280.8203,0,U,48046,999,23949,-.48884E-3,-.166E-5,0
ONEWEB-0150,2021-025F,2026-03-01T07:28:44.449248,13.13468952,.0001845,87.9051,341.6613,72.6588,287.4743,0,U,48047,999,23938,.69053E-3,.265E-5,0
ONEWEB-0107,2021-025G,2026-03-01T07:31:10.427232,13.13468296,.0002046,87.9050,341.6565,78.6195,281.5164,0,U,48048,999,23936,.64486E-3,.248E-5,0
ONEWEB-0101,2021-025H,2026-03-01T06:37:32.904192,13.13469265,.0001888,87.9039,341.6903,82.3274,277.8069,0,U,48049,999,23933,-.41382E-3,-.138E-5,0
ONEWEB-0113,2021-025J,2026-03-01T06:17:05.277696,13.13974099,.0001509,87.9050,341.6131,80.2301,279.8999,0,U,48050,999,23943,-.62384E-3,-.217E-5,0
ONEWEB-0112,2021-025K,2026-03-01T07:38:29.640768,13.13469477,.0001926,87.9050,341.6530,83.6108,276.5240,0,U,48051,999,23943,.64505E-3,.248E-5,0
ONEWEB-0156,2021-025L,2026-03-01T07:50:40.512192,13.13467988,.0001938,87.9051,341.6619,75.2277,284.9066,0,U,48052,999,23941,-.1081E-3,-.27E-6,0
ONEWEB-0161,2021-025M,2026-03-01T07:14:07.217952,13.13469266,.0001962,87.9037,341.6772,77.3787,282.7561,0,U,48053,999,23934,.93707E-3,.355E-5,0
ONEWEB-0158,2021-025N,2026-03-01T08:05:18.237696,13.13469527,.0001506,87.9051,341.6599,85.8063,274.3238,0,U,48054,999,23947,-.64397E-3,-.222E-5,0
ONEWEB-0157,2021-025P,2026-03-01T06:52:10.475904,13.13469241,.0002206,87.9048,341.6749,79.5707,280.5671,0,U,48055,999,23940,.22342E-3,.94E-6,0
ONEWEB-0162,2021-025Q,2026-02-28T17:29:58.671456,13.13470662,.00018203,87.9050,341.7891,72.9721,287.1607,0,U,48056,999,23930,-.81732592E-3,-.286E-5,0
ONEWEB-0155,2021-025R,2026-03-01T06:27:47.485440,13.13469058,.0001915,87.9038,341.6823,82.4973,277.6374,0,U,48057,999,23951,-.57506E-3,-.197E-5,0
