ONEWEB-0133             
1 47279U 20100X   26060.35648951 -.00000328  00000+0 -94744-3 0  9992
2 47279  87.8995  12.0425 0001755  85.0622 275.0707 13.12442023250593
ONEWEB-0134             
1 47280U 20100Y   26060.40238261  .00000245  00000+0  64681-3 0  9992
2 47280  87.8996  12.0306 0001926  87.9163 272.2186 13.12441543250579
ONEWEB-0135             
1 47281U 20100Z   26060.37356647 -.00000770  00000+0 -21743-2 0  9994
2 47281  87.8984  12.0731 0001831  91.8931 268.2407 13.12449231250596
ONEWEB-0136             
1 47282U 20100AA  26060.39221281  .00000428  00000+0  11547-2 0  9991
2 47282  87.8995  12.0418 0002095  90.7958 269.3410 13.12441523250526
ONEWEB-0137             
1 47283U 20100AB  26060.34985309 -.00000361  00000+0 -10397-2 0  9995
2 47283  87.8996  12.0551 0001880  77.0910 283.0428 13.12442062250423
ONEWEB-0138             
1 47284U 20100AC  26060.40407469  .00000199  00000+0  51895-3 0  9995
2 47284  87.8995  12.0540 0001970  85.2620 274.8734 13.12441291250511
ONEWEB-0139             
1 47285U 20100AD  26060.36864201  .00000020  00000+0  20643-4 0  9993
2 47285  87.8992  12.0485 0001870  81.1730 278.9610 13.12442311250582
ONEWEB-0140             
1 47286U 20100AE  26060.39898939  .00000348  00000+0  93155-3 0  9992
2 47286  87.8995  12.0310 0001691  83.8077 276.3244 13.12441349250559
ONEWEB-0141             
1 47287U 20100AF  26060.36835653  .00000048  00000+0  97918-4 0  9993
2 47287  87.8993  12.0433 0001997  71.8800 288.2546 13.12442878250537
ONEWEB-0142             
1 47288U 20100AG  26060.35678267 -.00000304  00000+0 -87971-3 0  9993
2 47288  87.8989  12.0703 0002217  76.3584 283.7791 13.12444110250520
ONEWEB-0143             
1 47289U 20100AH  26060.36679749 -.00000050  00000+0 -17558-3 0  9993
2 47289  87.8992  12.0645 0001875  79.8884 280.2456 13.12442723250506
ONEWEB-0144             
1 47290U 20100AJ  26060.41423691 -.00000138  00000+0 -41835-3 0  9996
2 47290  87.8997  12.0244 0002169  84.4275 275.7101 13.12441231250432
ONEWEB-0145             
1 47291U 20100AK  26060.38543921  .00000443  00000+0  11947-2 0  9999
2 47291  87.8991  12.0688 0001951  81.2462 278.8887 13.12442068250625
ONEWEB-0146             
1 47292U 20100AL  26060.38202499  .00002427  00000+0  67076-2 0  9990
2 47292  87.8992  12.0544 0001615  77.0305 283.1004 13.12459905250532
ONEWEB-0147             
1 47293U 20100AM  26060.34816298 -.00000386  00000+0 -11084-2 0  9997
2 47293  87.8996  12.0408 0001877  89.6600 270.4744 13.12442164250420
ONEWEB-0115             
1 48042U 21025A   26060.30824126  .00000282  00000+0  73637-3 0  9998
2 48042  87.9049 341.6722 0001722  79.2060 280.9262 13.13468920239435
ONEWEB-0152             
1 48043U 21025B   26060.32177794  .00000117  00000+0  28577-3 0  9993
2 48043  87.9045 341.6715 0001637  79.1424 280.9889 13.13468807239396
ONEWEB-0153             
1 48044U 21025C   26060.29978002  .00000309  00000+0  81105-3 0  9990
2 48044  87.9040 341.6813 0001872  77.8897 282.2442 13.13469302239381
ONEWEB-0154             
1 48045U 21025D   26060.29639320  .00000280  00000+0  73110-3 0  9993
2 48045  87.9040 341.6795 0001734  81.8932 278.2394 13.13470821239348
ONEWEB-0116             
1 48046U 21025E   26060.33531823 -.00000166  00000+0 -48884-3 0  9993
2 48046  87.9050 341.6593 0001635  79.3110 280.8203 13.13468714239498
ONEWEB-0150             
1 48047U 21025F   26060.31162557  .00000265  00000+0  69053-3 0  9995
2 48047  87.9051 341.6613 0001845  72.6588 287.4743 13.13468952239385
ONEWEB-0107             
1 48048U 21025G   26060.31331513  .00000248  00000+0  64486-3 0  9992
2 48048  87.9050 341.6565 0002046  78.6195 281.5164 13.13468296239366
ONEWEB-0101             
1 48049U 21025H   26060.27607528 -.00000138  00000+0 -41382-3 0  9990
2 48049  87.9039 341.6903 0001888  82.3274 277.8069 13.13469265239339
ONEWEB-0113             
1 48050U 21025J   26060.26186664 -.00000217  00000+0 -62384-3 0  9997
2 48050  87.9050 341.6131 0001509  80.2301 279.8999 13.13974099239436
ONEWEB-0112             
1 48051U 21025K   26060.31839862  .00000248  00000+0  64505-3 0  9998
2 48051  87.9050 341.6530 0001926  83.6108 276.5240 13.13469477239437
ONEWEB-0156             
1 48052U 21025L   26060.32685778 -.00000027  00000+0 -10810-3 0  9992
2 48052  87.9051 341.6619 0001938  75.2277 284.9066 13.13467988239416
ONEWEB-0161             
1 48053U 21025M   26060.30147243  .00000355  00000+0  93707-3 0  9999
2 48053  87.9037 341.6772 0001962  77.3787 282.7561 13.13469266239346
ONEWEB-0158             
1 48054U 21025N   26060.33701664 -.00000222  00000+0 -64397-3 0  9994
2 48054  87.9051 341.6599 0001506  85.8063 274.3238 13.13469527239477
ONEWEB-0157             
1 48055U 21025P   26060.28623236  .00000094  00000+0  22342-3 0  9996
2 48055  87.9048 341.6749 0002206  79.5707 280.5671 13.13469241239400
ONEWEB-0162             
1 48056U 21025Q   26059.72915129 -.00000286  00000+0 -81733-3 0  9993
2 48056  87.9050 341.7891 0001820  72.9721 287.1607 13.13470662239307
ONEWEB-0155             
1 48057U 21025R   26060.26929960 -.00000197  00000+0 -57506-3 0  9995
2 48057  87.9038 341.6823 0001915  82.4973 277.6374 13.13469058239513
